STARLINK-36649          
1 67837U 26033S   26072.91668981 -.01887760  00000+0 -16818-1 0  9993
2 67837  42.9990 245.6046 0001782 275.0174  48.9306 15.70464776  5346
STARLINK-36654          
1 67838U 26033T   26072.91668981 -.01882551  00000+0 -18245-1 0  9993
2 67838  42.9995 245.6478 0001689 274.1417  32.3719 15.68450632  5345
STARLINK-36652          
1 67839U 26033U   26072.91668981 -.01880173  00000+0 -19544-1 0  9995
2 67839  42.9997 245.6900 0001752 272.8534  16.7887 15.66747600  5348
STARLINK-36651          
1 67840U 26033V   26072.91668981 -.01884567  00000+0 -18401-1 0  9999
2 67840  42.9995 245.6314 0001714 272.5164  40.4482 15.68274403  5344
STARLINK-36656          
1 67841U 26033W   26072.91668981 -.01890281  00000+0 -17634-1 0  9997
2 67841  42.9991 245.5898 0001732 275.1458  54.5638 15.69376486  5346
STARLINK-36653          
1 67842U 26033X   26072.91668981 -.01884669  00000+0 -18331-1 0  9996
2 67842  42.9993 245.6071 0001743 274.3562  48.2494 15.68366975  5343
STARLINK-36589          
1 67843U 26033Y   26072.91668981 -.01885342  00000+0 -17555-1 0  9993
2 67843  42.9993 245.5673 0001759 276.6030  62.0839 15.69412480  5344
STARLINK-36598          
1 67844U 26033Z   26072.91668981 -.01885436  00000+0 -20052-1 0  9994
2 67844  42.9996 245.6544 0001753 272.1900  31.4418 15.66196747  5342
STARLINK-36606          
1 67845U 26033AA  26072.91668981 -.01854667  00000+0 -15180-1 0  9993
2 67845  42.9991 245.4644 0001737 277.6111 102.2211 15.72912119  5347
STARLINK-36658          
1 67846U 26033AB  26072.91668981 -.01881575  00000+0 -19636-1 0  9992
2 67846  42.9993 245.6176 0001659 274.1357  44.2201 15.66654357  5343
STARLINK-36618          
1 67847U 26033AC  26072.91668981  .00169960  18877-4  51706-3 0  9999
2 67847  42.9786 242.7714 0001966 285.4252  75.0855 15.91383557  5346
STARLINK-36660          
1 67848U 26033AD  26072.91668981 -.01877016  00000+0 -20769-1 0  9998
2 67848  42.9993 245.6553 0001757 271.3511  31.2568 15.65206695  5343
