CCSDS_OMM_VERS = 2.0
CREATION_DATE  = 
ORIGINATOR     = 

OBJECT_NAME    = STARLINK-36649
OBJECT_ID      = 2026-033S
CENTER_NAME    = EARTH
REF_FRAME      = TEME
TIME_SYSTEM    = UTC
MEAN_ELEMENT_THEORY = SGP/SGP4

EPOCH          = 2026-03-13T22:00:01.999584
MEAN_MOTION    = 15.70464776
ECCENTRICITY   = .00017827
INCLINATION    = 42.9990
RA_OF_ASC_NODE = 245.6046
ARG_OF_PERICENTER = 275.0174
MEAN_ANOMALY   = 48.9306

EPHEMERIS_TYPE = 0
CLASSIFICATION_TYPE = U
NORAD_CAT_ID   = 67837
ELEMENT_SET_NO = 999
REV_AT_EPOCH   = 534
BSTAR          = -.16818452E-1
MEAN_MOTION_DOT = -.188776E-1
MEAN_MOTION_DDOT = 0

CCSDS_OMM_VERS = 2.0
CREATION_DATE  = 
ORIGINATOR     = 

OBJECT_NAME    = STARLINK-36654
OBJECT_ID      = 2026-033T
CENTER_NAME    = EARTH
REF_FRAME      = TEME
TIME_SYSTEM    = UTC
MEAN_ELEMENT_THEORY = SGP/SGP4

EPOCH          = 2026-03-13T22:00:01.999584
MEAN_MOTION    = 15.68450632
ECCENTRICITY   = .00016894
INCLINATION    = 42.9995
RA_OF_ASC_NODE = 245.6478
ARG_OF_PERICENTER = 274.1417
MEAN_ANOMALY   = 32.3719

EPHEMERIS_TYPE = 0
CLASSIFICATION_TYPE = U
NORAD_CAT_ID   = 67838
ELEMENT_SET_NO = 999
REV_AT_EPOCH   = 534
BSTAR          = -.18244667E-1
MEAN_MOTION_DOT = -.1882551E-1
MEAN_MOTION_DDOT = 0

CCSDS_OMM_VERS = 2.0
CREATION_DATE  = 
ORIGINATOR     = 

OBJECT_NAME    = STARLINK-36652
OBJECT_ID      = 2026-033U
CENTER_NAME    = EARTH
REF_FRAME      = TEME
TIME_SYSTEM    = UTC
MEAN_ELEMENT_THEORY = SGP/SGP4

EPOCH          = 2026-03-13T22:00:01.999584
MEAN_MOTION    = 15.66747600
ECCENTRICITY   = .00017521
INCLINATION    = 42.9997
RA_OF_ASC_NODE = 245.6900
ARG_OF_PERICENTER = 272.8534
MEAN_ANOMALY   = 16.7887

EPHEMERIS_TYPE = 0
CLASSIFICATION_TYPE = U
NORAD_CAT_ID   = 67839
ELEMENT_SET_NO = 999
REV_AT_EPOCH   = 534
BSTAR          = -.19544172E-1
MEAN_MOTION_DOT = -.1880173E-1
MEAN_MOTION_DDOT = 0

CCSDS_OMM_VERS = 2.0
CREATION_DATE  = 
ORIGINATOR     = 

OBJECT_NAME    = STARLINK-36651
OBJECT_ID      = 2026-033V
CENTER_NAME    = EARTH
REF_FRAME      = TEME
TIME_SYSTEM    = UTC
MEAN_ELEMENT_THEORY = SGP/SGP4

EPOCH          = 2026-03-13T22:00:01.999584
MEAN_MOTION    = 15.68274403
ECCENTRICITY   = .00017149
INCLINATION    = 42.9995
RA_OF_ASC_NODE = 245.6314
ARG_OF_PERICENTER = 272.5164
MEAN_ANOMALY   = 40.4482

EPHEMERIS_TYPE = 0
CLASSIFICATION_TYPE = U
NORAD_CAT_ID   = 67840
ELEMENT_SET_NO = 999
REV_AT_EPOCH   = 534
BSTAR          = -.18400645E-1
MEAN_MOTION_DOT = -.1884567E-1
MEAN_MOTION_DDOT = 0

CCSDS_OMM_VERS = 2.0
CREATION_DATE  = 
ORIGINATOR     = 

OBJECT_NAME    = STARLINK-36656
OBJECT_ID      = 2026-033W
CENTER_NAME    = EARTH
REF_FRAME      = TEME
TIME_SYSTEM    = UTC
MEAN_ELEMENT_THEORY = SGP/SGP4

EPOCH          = 2026-03-13T22:00:01.999584
MEAN_MOTION    = 15.69376486
ECCENTRICITY   = .00017326
INCLINATION    = 42.9991
RA_OF_ASC_NODE = 245.5898
ARG_OF_PERICENTER = 275.1458
MEAN_ANOMALY   = 54.5638

EPHEMERIS_TYPE = 0
CLASSIFICATION_TYPE = U
NORAD_CAT_ID   = 67841
ELEMENT_SET_NO = 999
REV_AT_EPOCH   = 534
BSTAR          = -.17634014E-1
MEAN_MOTION_DOT = -.1890281E-1
MEAN_MOTION_DDOT = 0

CCSDS_OMM_VERS = 2.0
CREATION_DATE  = 
ORIGINATOR     = 

OBJECT_NAME    = STARLINK-36653
OBJECT_ID      = 2026-033X
CENTER_NAME    = EARTH
REF_FRAME      = TEME
TIME_SYSTEM    = UTC
MEAN_ELEMENT_THEORY = SGP/SGP4

EPOCH          = 2026-03-13T22:00:01.999584
MEAN_MOTION    = 15.68366975
ECCENTRICITY   = .00017436
INCLINATION    = 42.9993
RA_OF_ASC_NODE = 245.6071
ARG_OF_PERICENTER = 274.3562
MEAN_ANOMALY   = 48.2494

EPHEMERIS_TYPE = 0
CLASSIFICATION_TYPE = U
NORAD_CAT_ID   = 67842
ELEMENT_SET_NO = 999
REV_AT_EPOCH   = 534
BSTAR          = -.18330955E-1
MEAN_MOTION_DOT = -.1884669E-1
MEAN_MOTION_DDOT = 0

CCSDS_OMM_VERS = 2.0
CREATION_DATE  = 
ORIGINATOR     = 

OBJECT_NAME    = STARLINK-36589
OBJECT_ID      = 2026-033Y
CENTER_NAME    = EARTH
REF_FRAME      = TEME
TIME_SYSTEM    = UTC
MEAN_ELEMENT_THEORY = SGP/SGP4

EPOCH          = 2026-03-13T22:00:01.999584
MEAN_MOTION    = 15.69412480
ECCENTRICITY   = .00017593
INCLINATION    = 42.9993
RA_OF_ASC_NODE = 245.5673
ARG_OF_PERICENTER = 276.6030
MEAN_ANOMALY   = 62.0839

EPHEMERIS_TYPE = 0
CLASSIFICATION_TYPE = U
NORAD_CAT_ID   = 67843
ELEMENT_SET_NO = 999
REV_AT_EPOCH   = 534
BSTAR          = -.17555426E-1
MEAN_MOTION_DOT = -.1885342E-1
MEAN_MOTION_DDOT = 0

CCSDS_OMM_VERS = 2.0
CREATION_DATE  = 
ORIGINATOR     = 

OBJECT_NAME    = STARLINK-36598
OBJECT_ID      = 2026-033Z
CENTER_NAME    = EARTH
REF_FRAME      = TEME
TIME_SYSTEM    = UTC
MEAN_ELEMENT_THEORY = SGP/SGP4

EPOCH          = 2026-03-13T22:00:01.999584
MEAN_MOTION    = 15.66196747
ECCENTRICITY   = .00017535
INCLINATION    = 42.9996
RA_OF_ASC_NODE = 245.6544
ARG_OF_PERICENTER = 272.1900
MEAN_ANOMALY   = 31.4418

EPHEMERIS_TYPE = 0
CLASSIFICATION_TYPE = U
NORAD_CAT_ID   = 67844
ELEMENT_SET_NO = 999
REV_AT_EPOCH   = 534
BSTAR          = -.20052029E-1
MEAN_MOTION_DOT = -.1885436E-1
MEAN_MOTION_DDOT = 0

CCSDS_OMM_VERS = 2.0
CREATION_DATE  = 
ORIGINATOR     = 

OBJECT_NAME    = STARLINK-36606
OBJECT_ID      = 2026-033AA
CENTER_NAME    = EARTH
REF_FRAME      = TEME
TIME_SYSTEM    = UTC
MEAN_ELEMENT_THEORY = SGP/SGP4

EPOCH          = 2026-03-13T22:00:01.999584
MEAN_MOTION    = 15.72912119
ECCENTRICITY   = .00017376
INCLINATION    = 42.9991
RA_OF_ASC_NODE = 245.4644
ARG_OF_PERICENTER = 277.6111
MEAN_ANOMALY   = 102.2211

EPHEMERIS_TYPE = 0
CLASSIFICATION_TYPE = U
NORAD_CAT_ID   = 67845
ELEMENT_SET_NO = 999
REV_AT_EPOCH   = 534
BSTAR          = -.15179727E-1
MEAN_MOTION_DOT = -.1854667E-1
MEAN_MOTION_DDOT = 0

CCSDS_OMM_VERS = 2.0
CREATION_DATE  = 
ORIGINATOR     = 

OBJECT_NAME    = STARLINK-36658
OBJECT_ID      = 2026-033AB
CENTER_NAME    = EARTH
REF_FRAME      = TEME
TIME_SYSTEM    = UTC
MEAN_ELEMENT_THEORY = SGP/SGP4

EPOCH          = 2026-03-13T22:00:01.999584
MEAN_MOTION    = 15.66654357
ECCENTRICITY   = .00016598
INCLINATION    = 42.9993
RA_OF_ASC_NODE = 245.6176
ARG_OF_PERICENTER = 274.1357
MEAN_ANOMALY   = 44.2201

EPHEMERIS_TYPE = 0
CLASSIFICATION_TYPE = U
NORAD_CAT_ID   = 67846
ELEMENT_SET_NO = 999
REV_AT_EPOCH   = 534
BSTAR          = -.19636173E-1
MEAN_MOTION_DOT = -.1881575E-1
MEAN_MOTION_DDOT = 0

CCSDS_OMM_VERS = 2.0
CREATION_DATE  = 
ORIGINATOR     = 

OBJECT_NAME    = STARLINK-36618
OBJECT_ID      = 2026-033AC
CENTER_NAME    = EARTH
REF_FRAME      = TEME
TIME_SYSTEM    = UTC
MEAN_ELEMENT_THEORY = SGP/SGP4

EPOCH          = 2026-03-13T22:00:01.999584
MEAN_MOTION    = 15.91383557
ECCENTRICITY   = .00019665
INCLINATION    = 42.9786
RA_OF_ASC_NODE = 242.7714
ARG_OF_PERICENTER = 285.4252
MEAN_ANOMALY   = 75.0855

EPHEMERIS_TYPE = 0
CLASSIFICATION_TYPE = U
NORAD_CAT_ID   = 67847
ELEMENT_SET_NO = 999
REV_AT_EPOCH   = 534
BSTAR          = .51705749E-3
MEAN_MOTION_DOT = .16996E-2
MEAN_MOTION_DDOT = .18876761E-4

CCSDS_OMM_VERS = 2.0
CREATION_DATE  = 
ORIGINATOR     = 

OBJECT_NAME    = STARLINK-36660
OBJECT_ID      = 2026-033AD
CENTER_NAME    = EARTH
REF_FRAME      = TEME
TIME_SYSTEM    = UTC
MEAN_ELEMENT_THEORY = SGP/SGP4

EPOCH          = 2026-03-13T22:00:01.999584
MEAN_MOTION    = 15.65206695
ECCENTRICITY   = .00017572
INCLINATION    = 42.9993
RA_OF_ASC_NODE = 245.6553
ARG_OF_PERICENTER = 271.3511
MEAN_ANOMALY   = 31.2568

EPHEMERIS_TYPE = 0
CLASSIFICATION_TYPE = U
NORAD_CAT_ID   = 67848
ELEMENT_SET_NO = 999
REV_AT_EPOCH   = 534
BSTAR          = -.20768975E-1
MEAN_MOTION_DOT = -.1877016E-1
MEAN_MOTION_DDOT = 0

